{
	"names" : [
		{
			"first" : "1Azzle",
			"last" : "1Zalens",
			"street" : "19554 Niemann",
			"city" : "1Quinteros",
			"state" : "1VA",
			"zip" : "148686"
		},
		{
			"first" : "2Azzle",
			"last" : "2Zalens",
			"street" : "29554 Niemann",
			"city" : "2Quinteros",
			"state" : "2VA",
			"zip" : "248686"
		},
		{
			"first" : "Azzle",
			"last" : "Zalens",
			"street" : "9554 Niemann",
			"city" : "Quinteros",
			"state" : "VA",
			"zip" : "48686"
		},
		{
			"first" : "Azzle",
			"last" : "Zalens",
			"street" : "9554 Niemann",
			"city" : "Quinteros",
			"state" : "VA",
			"zip" : "48686"
		},
		{
			"first" : "Azzle",
			"last" : "Zalens",
			"street" : "9554 Niemann",
			"city" : "Quinteros",
			"state" : "VA",
			"zip" : "48686"
		},
		{
			"first" : "Azzle",
			"last" : "Zalens",
			"street" : "9554 Niemann",
			"city" : "Quinteros",
			"state" : "VA",
			"zip" : "48686"
		},
		{
			"first" : "Azzle",
			"last" : "Zalens",
			"street" : "9554 Niemann",
			"city" : "Quinteros",
			"state" : "VA",
			"zip" : "48686"
		},
		{
			"first" : "Azzle",
			"last" : "Zalens",
			"street" : "9554 Niemann",
			"city" : "Quinteros",
			"state" : "VA",
			"zip" : "48686"
		},
		{
			"first" : "Azzle",
			"last" : "Zalens",
			"street" : "9554 Niemann",
			"city" : "Quinteros",
			"state" : "VA",
			"zip" : "48686"
		},
		{
			"first" : "Azzle",
			"last" : "Zalens",
			"street" : "9554 Niemann",
			"city" : "Quinteros",
			"state" : "VA",
			"zip" : "48686"
		},
		{
			"first" : "Azzle",
			"last" : "Zalens",
			"street" : "9554 Niemann",
			"city" : "Quinteros",
			"state" : "VA",
			"zip" : "48686"
		},
		{
			"first" : "Azzle",
			"last" : "Zalens",
			"street" : "9554 Niemann",
			"city" : "Quinteros",
			"state" : "VA",
			"zip" : "48686"
		},
		{
			"first" : "Azzle",
			"last" : "Zalens",
			"street" : "9554 Niemann",
			"city" : "Quinteros",
			"state" : "VA",
			"zip" : "48686"
		},
		{
			"first" : "Azzle",
			"last" : "Zalens",
			"street" : "9554 Niemann",
			"city" : "Quinteros",
			"state" : "VA",
			"zip" : "48686"
		},
		{
			"first" : "Azzle",
			"last" : "Zalens",
			"street" : "9554 Niemann",
			"city" : "Quinteros",
			"state" : "VA",
			"zip" : "48686"
		},
		{
			"first" : "Azzle",
			"last" : "Zalens",
			"street" : "9554 Niemann",
			"city" : "Quinteros",
			"state" : "VA",
			"zip" : "48686"
		},
		{
			"first" : "Azzle",
			"last" : "Zalens",
			"street" : "9554 Niemann",
			"city" : "Quinteros",
			"state" : "VA",
			"zip" : "48686"
		},
		{
			"first" : "Azzle",
			"last" : "Zalens",
			"street" : "9554 Niemann",
			"city" : "Quinteros",
			"state" : "VA",
			"zip" : "48686"
		},
		{
			"first" : "Azzle",
			"last" : "Zalens",
			"street" : "9554 Niemann",
			"city" : "Quinteros",
			"state" : "VA",
			"zip" : "48686"
		},
		{
			"first" : "Azzle",
			"last" : "Zalens",
			"street" : "9554 Niemann",
			"city" : "Quinteros",
			"state" : "VA",
			"zip" : "48686"
		},
		{
			"first" : "Azzle",
			"last" : "Zalens",
			"street" : "9554 Niemann",
			"city" : "Quinteros",
			"state" : "VA",
			"zip" : "48686"
		},
		{
			"first" : "Azzle",
			"last" : "Zalens",
			"street" : "9554 Niemann",
			"city" : "Quinteros",
			"state" : "VA",
			"zip" : "48686"
		},
		{
			"first" : "Azzle",
			"last" : "Zalens",
			"street" : "9554 Niemann",
			"city" : "Quinteros",
			"state" : "VA",
			"zip" : "48686"
		},
		{
			"first" : "Azzle",
			"last" : "Zalens",
			"street" : "9554 Niemann",
			"city" : "Quinteros",
			"state" : "VA",
			"zip" : "48686"
		},
		{
			"first" : "Azzle",
			"last" : "Zalens",
			"street" : "9554 Niemann",
			"city" : "Quinteros",
			"state" : "VA",
			"zip" : "48686"
		},
		{
			"first" : "Azzle",
			"last" : "Zalens",
			"street" : "9554 Niemann",
			"city" : "Quinteros",
			"state" : "VA",
			"zip" : "48686"
		},
		{
			"first" : "Azzle",
			"last" : "Zalens",
			"street" : "9554 Niemann",
			"city" : "Quinteros",
			"state" : "VA",
			"zip" : "48686"
		},
		{
			"first" : "Azzle",
			"last" : "Zalens",
			"street" : "9554 Niemann",
			"city" : "Quinteros",
			"state" : "VA",
			"zip" : "48686"
		},
		{
			"first" : "Azzle",
			"last" : "Zalens",
			"street" : "9554 Niemann",
			"city" : "Quinteros",
			"state" : "VA",
			"zip" : "48686"
		},
		{
			"first" : "Azzle",
			"last" : "Zalens",
			"street" : "9554 Niemann",
			"city" : "Quinteros",
			"state" : "VA",
			"zip" : "48686"
		},
		{
			"first" : "Azzle",
			"last" : "Zalens",
			"street" : "9554 Niemann",
			"city" : "Quinteros",
			"state" : "VA",
			"zip" : "48686"
		},
		{
			"first" : "Azzle",
			"last" : "Zalens",
			"street" : "9554 Niemann",
			"city" : "Quinteros",
			"state" : "VA",
			"zip" : "48686"
		},
		{
			"first" : "Azzle",
			"last" : "Zalens",
			"street" : "9554 Niemann",
			"city" : "Quinteros",
			"state" : "VA",
			"zip" : "48686"
		},
		{
			"first" : "Azzle",
			"last" : "Zalens",
			"street" : "9554 Niemann",
			"city" : "Quinteros",
			"state" : "VA",
			"zip" : "48686"
		},
		{
			"first" : "Azzle",
			"last" : "Zalens",
			"street" : "9554 Niemann",
			"city" : "Quinteros",
			"state" : "VA",
			"zip" : "48686"
		},
		{
			"first" : "Azzle",
			"last" : "Zalens",
			"street" : "9554 Niemann",
			"city" : "Quinteros",
			"state" : "VA",
			"zip" : "48686"
		},
		{
			"first" : "Azzle",
			"last" : "Zalens",
			"street" : "9554 Niemann",
			"city" : "Quinteros",
			"state" : "VA",
			"zip" : "48686"
		},
		{
			"first" : "Azzle",
			"last" : "Zalens",
			"street" : "9554 Niemann",
			"city" : "Quinteros",
			"state" : "VA",
			"zip" : "48686"
		},
		{
			"first" : "Azzle",
			"last" : "Zalens",
			"street" : "9554 Niemann",
			"city" : "Quinteros",
			"state" : "VA",
			"zip" : "48686"
		},
		{
			"first" : "Azzle",
			"last" : "Zalens",
			"street" : "9554 Niemann",
			"city" : "Quinteros",
			"state" : "VA",
			"zip" : "48686"
		},
		{
			"first" : "Azzle",
			"last" : "Zalens",
			"street" : "9554 Niemann",
			"city" : "Quinteros",
			"state" : "VA",
			"zip" : "48686"
		},
		{
			"first" : "Azzle",
			"last" : "Zalens",
			"street" : "9554 Niemann",
			"city" : "Quinteros",
			"state" : "VA",
			"zip" : "48686"
		},
		{
			"first" : "Azzle",
			"last" : "Zalens",
			"street" : "9554 Niemann",
			"city" : "Quinteros",
			"state" : "VA",
			"zip" : "48686"
		},
		{
			"first" : "Azzle",
			"last" : "Zalens",
			"street" : "9554 Niemann",
			"city" : "Quinteros",
			"state" : "VA",
			"zip" : "48686"
		},
		{
			"first" : "Azzle",
			"last" : "Zalens",
			"street" : "9554 Niemann",
			"city" : "Quinteros",
			"state" : "VA",
			"zip" : "48686"
		},
		{
			"first" : "Azzle",
			"last" : "Zalens",
			"street" : "9554 Niemann",
			"city" : "Quinteros",
			"state" : "VA",
			"zip" : "48686"
		},
		{
			"first" : "Azzle",
			"last" : "Zalens",
			"street" : "9554 Niemann",
			"city" : "Quinteros",
			"state" : "VA",
			"zip" : "48686"
		},
		{
			"first" : "Azzle",
			"last" : "Zalens",
			"street" : "9554 Niemann",
			"city" : "Quinteros",
			"state" : "VA",
			"zip" : "48686"
		},
		{
			"first" : "Azzle",
			"last" : "Zalens",
			"street" : "9554 Niemann",
			"city" : "Quinteros",
			"state" : "VA",
			"zip" : "48686"
		},
		{
			"first" : "Azzle",
			"last" : "Zalens",
			"street" : "9554 Niemann",
			"city" : "Quinteros",
			"state" : "VA",
			"zip" : "48686"
		},
		{
			"first" : "Azzle",
			"last" : "Zalens",
			"street" : "9554 Niemann",
			"city" : "Quinteros",
			"state" : "VA",
			"zip" : "48686"
		},
		{
			"first" : "Azzle",
			"last" : "Zalens",
			"street" : "9554 Niemann",
			"city" : "Quinteros",
			"state" : "VA",
			"zip" : "48686"
		},
		{
			"first" : "Azzle",
			"last" : "Zalens",
			"street" : "9554 Niemann",
			"city" : "Quinteros",
			"state" : "VA",
			"zip" : "48686"
		},
		{
			"first" : "Azzle",
			"last" : "Zalens",
			"street" : "9554 Niemann",
			"city" : "Quinteros",
			"state" : "VA",
			"zip" : "48686"
		},
		{
			"first" : "Azzle",
			"last" : "Zalens",
			"street" : "9554 Niemann",
			"city" : "Quinteros",
			"state" : "VA",
			"zip" : "48686"
		}
	]
}